#dP2021  1 18  0  0  0.00000000     289 ORBIT ITRF  BHN ESOC                    
## 2141  86400.00000000   300.00000000 59232 0.0000000000000                    
+  110   G13G28G21G22G07G05G20G31G17G15G16G29G12G19G02G25G01                    
+        G30G24G27G06G09G03G32G26G08G10G04G18G23G14R09R11R20                    
+        R19R13R01R22R16R08R03R07R02R17R14R18R21R05R15R12R04                    
+        R24E11E12E19E18E14E26E24E30E08E09E01E02E07E03E04E05                    
+        E21E25E27E31E36E13E15E33C11C12C14C19C20C27C28C22C21                    
+        C29C30C23C24C26C25C32C33C35C34C36C37C06C07C08C09C10                    
+        C13C16C38C39C40J01J02J03  0  0  0  0  0  0  0  0  0                    
++         4  5  4  5  4  5  4  4  5  5  5  5  5  5  5  4  4                    
++         4  4  4  4  5  5  4  4  4  4  4  4  5  4  6  5  7                    
++         7  4  6  6  5  6  5  6  4  5  5  5  5  5  5  5  5                    
++         5  5  4  5  5  5  5  4  4  4  5  5  4  5  5  4  5                    
++         5  4  4  4  5  5  5  5  5  6  5  6  5  5  5  6  6                    
++         6  5  5  6  5  5  6  5  6  5  6  5  6  6  7  6  6                    
++         7  6  8  4  6  7  6  6  0  0  0  0  0  0  0  0  0                    
%c M  cc GPS ccc cccc cccc cccc cccc ccccc ccccc ccccc ccccc                    
%c cc cc ccc ccc cccc cccc cccc cccc ccccc ccccc ccccc ccccc                    
%f  0.0000000  0.000000000  0.00000000000  0.000000000000000                    
%f  0.0000000  0.000000000  0.00000000000  0.000000000000000                    
%i    0    0    0    0      0      0      0      0         0                    
%i    0    0    0    0      0      0      0      0         0                    
/* CCCCCCCCCCCCCCCCCCCCCCCCCCCCCCCCCCCCCCCCCCCCCCCCCCCCCCCCCCCCCCCCCCCCCCCCCCCCC
/* CCCCCCCCCCCCCCCCCCCCCCCCCCCCCCCCCCCCCCCCCCCCCCCCCCCCCCCCCCCCCCCCCCCCCCCCCCCCC
/* CCCCCCCCCCCCCCCCCCCCCCCCCCCCCCCCCCCCCCCCCCCCCCCCCCCCCCCCCCCCCCCCCCCCCCCCCCCCC
/* PCV:IGS        OL/AL:EOT11A   NONE     YN ORB:CoN CLK:CoN                    
*  2021  1 18  8 50  0.00000000                                                 
PG13  13139.290175 -20374.099836  10571.336159     87.186147                    
PG28  21616.583276  11140.006360  -9886.203844    628.121165                    
PG21 -10859.645143  17650.120659 -15638.449606     87.827441                    
PG22    333.636341  17560.896199 -19769.152034   -696.131313                    
PG07  14072.184871  10181.487222  20547.051611     25.980357                    
PG05  10852.983365 -10916.164718  21505.457558    -31.298297                    
PG20 -21438.919577 -15465.394827   3741.972798    525.113268                    
PG31 -25691.727579   5987.621161  -4869.811264    -94.606020                    
PG17  14152.097342   3307.230125 -21796.972747    381.718060                    
PG15   1798.844965 -26236.949809   1506.055188   -175.534559                    
PG16 -12617.230408   8281.134748  21662.295413   -266.797096                    
PG29  -5722.971619 -21087.787161  15033.556861   -278.002145                    
PG12  -3421.410506 -19500.094559 -18022.116030     11.347756                    
PG19  15739.462744  -4914.239236 -21083.544903    -50.379514                    
PG02  21236.038293 -15065.606838   5919.637768   -567.258956                    
PG25 -16155.653992 -19743.218701  -8141.899418     62.144113                    
PG01  -2492.839912  16127.600162 -21120.586784    778.175097                    
PG30  22647.619998   2443.494236  13885.646183   -370.766189                    
PG24   6486.901222 -18178.160782 -18315.218461      3.528608                    
PG27 -12185.762463  18586.157883  14112.771353    -58.376270                    
PG06  25053.006141  -4798.747699  -7426.180842     -4.503326                    
PG09   8366.630078  20113.999739  15114.163368   -313.957848                    
PG03   8253.322615  19998.964349 -15554.412123    -59.327439                    
PG32 -15120.730264  -2003.142615 -21651.598253     14.886785                    
PG26 -20520.417455    414.260124  16952.474487     31.660107                    
PG08  -5148.322472  25730.755368   2914.059863     -7.033011                    
PG10 -23016.062159 -10308.676314  -8650.072140    -41.765924                    
PG04   -832.079312  26013.781223   5156.889417   -173.618267                    
PG18 -15986.079211  -8345.164052  19515.120556    342.059868                    
PG23 -20689.021991 -16615.469625   1531.367191    116.487401                    
PG14  22338.876098  12409.432004  -7261.936453     87.172698                    
PR09  -1986.016783  11087.635840  22899.290973     19.199779                    
PR11  25153.049357   4175.976592    868.276728      4.409957                    
PR20 -11654.494496  20154.786022 -10357.120763   -431.407542                    
PR19 -18564.565629  14714.860618   9471.122062   -128.398159                    
PR13   2471.584648 -10733.336696 -23026.418655    -49.491025                    
PR01   9344.037523  -6331.195279  22871.785701     73.637451                    
PR22  14796.215855  -3249.049637 -20559.229005    -93.128860                    
PR16 -18747.852249   5446.946933  16468.973488    -10.347653                    
PR08  13417.987096   9190.076860  19692.720896    -56.924630                    
PR03 -11206.153004 -22222.105155  -5684.148784     29.342497                    
PR07  11421.238175  21866.508999   6425.117765    -42.213769                    
PR02  -2498.481812 -22632.781979  11597.611492    463.336395                    
PR17  -2789.875067 -12401.989129  22123.375581    392.257306                    
PR14 -16335.744430 -10667.588553 -16419.906576     59.965259                    
PR18 -14170.328574   2128.122634  21109.577175     63.537613                    
PR21   3533.961794  11563.816036 -22456.475793   -181.238439                    
PR05  -8037.707560   8739.236117 -22566.444136     64.928280                    
PR15 -25129.439637  -4378.963179   -454.890234    105.818059                    
PR12  19351.097518  -4540.915111 -15947.249480    197.604468                    
PR04 -13306.287083  -9318.621211 -19647.523116     70.449580                    
PR24  10755.218548 -20374.730651  10959.074059     28.199827                    
PE11 -11249.122870 -11875.879953  24670.222247   6452.560762                    
PE12   9091.844798 -21222.221196  18541.812105   5400.955421                    
PE19  13438.348674 -16005.108211  20963.162469    181.325307                    
PE18  11666.817361  22608.415705 -19717.849748  -1419.517494                    
PE14  -2966.654127 -22438.272127   8933.781696  -1298.788480                    
PE26  24654.610130  -4532.522575 -15726.483425   2251.876239                    
PE24 -20948.001038 -18059.891189 -10599.741667   -695.799125                    
PE30   1932.287391  18295.593344  23174.364593   3253.548775                    
PE08   -316.401982  29332.827734  -3999.830504   6060.307681                    
PE09 -11895.855768 -23109.014249 -14156.386459   5795.228340                    
PE01  17804.102723  -8007.780148 -22245.644193  -1027.231797                    
PE02 -17741.480473   8066.489562  22284.014746    191.886913                    
PE07  11778.397800  23287.520483  13975.506888   -489.200819                    
PE03 -12547.239459  18199.026144 -19697.722934   -388.633901                    
PE04    699.286824 -29285.373360   4258.598048   -691.249258                    
PE05 -17204.493023  -3741.765891 -23798.713729   -311.950370                    
PE21  27475.766022   6502.560256  -8870.995295   -643.499404                    
PE25 -27508.253319  -6637.378733   8710.511165   -524.571208                    
PE27  21452.157335  17724.471925  10069.576660     48.692042                    
PE31  -2884.872505 -18458.280816 -22955.782011   -477.468315                    
PE36 -24332.422092   4151.419840  16345.902017    452.682429                    
PE13  10889.416362  12037.859798 -24740.049130    410.467086                    
PE15  -8998.178481  21186.097813 -18594.601772    833.705135                    
PE33  23552.078610 -17869.493452   1546.122560   -464.961685                    
PC11  -8234.995633 -14832.495108  22216.428537   -894.266981                    
PC12   6055.214297 -25042.552301  10738.323475    737.368813                    
PC14 -16620.058507 -22034.745768  -3913.444094    -70.542201                    
PC19  19625.201429  15283.571843  12682.260353    695.104221                    
PC20  11937.927269  24911.952860  -4028.855916   -909.777421                    
PC27 -12876.574096  24694.744939  -1611.032213    468.299003                    
PC28 -19509.594104  13018.981930  15131.915822   -120.394860                    
PC22  16156.753639  -3433.453564  22495.056389   -848.572593                    
PC21   3323.965131 -20051.634579  19128.237955   -797.985996                    
PC29  14912.498094   5682.124621 -22894.628563    340.104890                    
PC30   1727.311524  22052.931417 -16997.675421    432.737344                    
PC23 -26470.185267   5341.542599   7059.216390   -880.641133                    
PC24  -8324.441554 -15431.444687 -21727.763875   -743.838596                    
PC26  11463.691799 -15045.547849 -20514.055530    961.239665                    
PC25 -25327.764502  -6188.041058  -9988.519851   -901.556496                    
PC32  -3172.486712  20081.127083 -19106.210357   -884.449833                    
PC33 -19691.095609 -15247.230134 -12577.375947   -920.610187                    
PC35  19109.511389 -13434.743204 -15292.144910   -460.266694                    
PC34  -2196.117405 -21724.022652  17389.288900   -760.560848                    
PC36  24987.353853   6982.998623  10287.868457   -774.478974                    
PC37 -12727.500193  14538.992992  20155.357515   -860.779551                    
PC06 -16634.087978  38326.676093  -2931.490317     14.813476                    
PC07  -7107.338050  28224.468491  30891.464649   -238.493232                    
PC08 -22789.713744  21398.947660 -28365.101627   -908.419663                    
PC09  -6757.315312  39435.066735  12840.970994    795.431778                    
PC10   5075.656279  33732.150641  25251.485233   -102.078082                    
PC13  -6018.741645  23765.942951 -34252.923592    102.824091                    
PC16 -15855.011695  38871.459884  -2416.600858   -663.790887                    
PC38 -20274.234531  23872.864932 -28255.382847    124.545356                    
PC39 -12267.136101  40249.143556  -1076.936968     27.487811                    
PC40    106.506286  29843.273310  29865.765450    122.374719                    
PJ01 -19959.651459  23711.309682 -24030.762523   -336.902604                    
PJ02 -28990.434156  20727.900735  27393.939153      0.846621                    
PJ03 -31116.575902  27625.618798  12321.788782     -0.154535                    
EOF                                                                             
